[
  {
    "OBJECT_NAME": "STARLINK-11095 [DTC]",
    "OBJECT_ID": "24088N",
    "EPOCH": "2025-11-11T01:26:37.437792",
    "MEAN_MOTION": 15.69705716,
    "ECCENTRICITY": 8.9e-05,
    "INCLINATION": 53.1588,
    "RA_OF_ASC_NODE": 190.8087,
    "ARG_OF_PERICENTER": 133.953,
    "MEAN_ANOMALY": 226.1562,
    "EPHEMERIS_TYPE": 0,
    "CLASSIFICATION_TYPE": "U",
    "NORAD_CAT_ID": 59720,
    "ELEMENT_SET_NO": 999,
    "REV_AT_EPOCH": 8764,
    "BSTAR": 2.4961e-05,
    "MEAN_MOTION_DOT": 2.436e-05,
    "MEAN_MOTION_DDOT": 0.0,
    "TLE_LINE1": "1 59720U 24088N   25315.06015553  .00002436  00000+0  24961-4 0  9996",
    "TLE_LINE2": "2 59720  53.1588 190.8087 0000890 133.9530 226.1562 15.69705716 87645",
    "COMMENT": "Grouped by shell and plane from TLE"
  },
  {
    "OBJECT_NAME": "STARLINK-11448 [DTC]",
    "OBJECT_ID": "25032A",
    "EPOCH": "2025-11-11T00:24:10.085760",
    "MEAN_MOTION": 15.71008779,
    "ECCENTRICITY": 0.0004308,
    "INCLINATION": 42.9994,
    "RA_OF_ASC_NODE": 190.3044,
    "ARG_OF_PERICENTER": 255.9096,
    "MEAN_ANOMALY": 104.1293,
    "EPHEMERIS_TYPE": 0,
    "CLASSIFICATION_TYPE": "U",
    "NORAD_CAT_ID": 63005,
    "ELEMENT_SET_NO": 999,
    "REV_AT_EPOCH": 4356,
    "BSTAR": 0.0023117,
    "MEAN_MOTION_DOT": 0.00309749,
    "MEAN_MOTION_DDOT": 0.0,
    "TLE_LINE1": "1 63005U 25032A   25315.01678340  .00309749  00000+0  23117-2 0  9998",
    "TLE_LINE2": "2 63005  42.9994 190.3044 0004308 255.9096 104.1293 15.71008779 43568",
    "COMMENT": "Grouped by shell and plane from TLE"
  },
  {
    "OBJECT_NAME": "STARLINK-11553 [DTC]",
    "OBJECT_ID": "25032B",
    "EPOCH": "2025-11-11T01:40:37.315776",
    "MEAN_MOTION": 15.71031655,
    "ECCENTRICITY": 0.0004428,
    "INCLINATION": 42.997,
    "RA_OF_ASC_NODE": 190.7329,
    "ARG_OF_PERICENTER": 255.5437,
    "MEAN_ANOMALY": 104.494,
    "EPHEMERIS_TYPE": 0,
    "CLASSIFICATION_TYPE": "U",
    "NORAD_CAT_ID": 63006,
    "ELEMENT_SET_NO": 999,
    "REV_AT_EPOCH": 4355,
    "BSTAR": 0.0022792000000000003,
    "MEAN_MOTION_DOT": 0.00305523,
    "MEAN_MOTION_DDOT": 0.0,
    "TLE_LINE1": "1 63006U 25032B   25315.06987634  .00305523  00000+0  22792-2 0  9997",
    "TLE_LINE2": "2 63006  42.9970 190.7329 0004428 255.5437 104.4940 15.71031655 43551",
    "COMMENT": "Grouped by shell and plane from TLE"
  },
  {
    "OBJECT_NAME": "STARLINK-11526 [DTC]",
    "OBJECT_ID": "25032C",
    "EPOCH": "2025-11-11T00:16:32.423232",
    "MEAN_MOTION": 15.70909408,
    "ECCENTRICITY": 0.0001109,
    "INCLINATION": 42.998,
    "RA_OF_ASC_NODE": 190.2615,
    "ARG_OF_PERICENTER": 292.3566,
    "MEAN_ANOMALY": 67.7184,
    "EPHEMERIS_TYPE": 0,
    "CLASSIFICATION_TYPE": "U",
    "NORAD_CAT_ID": 63007,
    "ELEMENT_SET_NO": 999,
    "REV_AT_EPOCH": 4355,
    "BSTAR": 0.0024066,
    "MEAN_MOTION_DOT": 0.00321536,
    "MEAN_MOTION_DDOT": 0.0,
    "TLE_LINE1": "1 63007U 25032C   25315.01148638  .00321536  00000+0  24066-2 0  9994",
    "TLE_LINE2": "2 63007  42.9980 190.2615 0001109 292.3566  67.7184 15.70909408 43551",
    "COMMENT": "Grouped by shell and plane from TLE"
  },
  {
    "OBJECT_NAME": "STARLINK-11405 [DTC]",
    "OBJECT_ID": "25032D",
    "EPOCH": "2025-11-11T01:26:38.932512",
    "MEAN_MOTION": 15.70896823,
    "ECCENTRICITY": 0.0002487,
    "INCLINATION": 42.9997,
    "RA_OF_ASC_NODE": 190.6526,
    "ARG_OF_PERICENTER": 263.9046,
    "MEAN_ANOMALY": 96.1538,
    "EPHEMERIS_TYPE": 0,
    "CLASSIFICATION_TYPE": "U",
    "NORAD_CAT_ID": 63008,
    "ELEMENT_SET_NO": 999,
    "REV_AT_EPOCH": 4340,
    "BSTAR": 0.0013700000000000001,
    "MEAN_MOTION_DOT": 0.00179634,
    "MEAN_MOTION_DDOT": 0.0,
    "TLE_LINE1": "1 63008U 25032D   25315.06017283  .00179634  00000+0  13700-2 0  9994",
    "TLE_LINE2": "2 63008  42.9997 190.6526 0002487 263.9046  96.1538 15.70896823 43401",
    "COMMENT": "Grouped by shell and plane from TLE"
  },
  {
    "OBJECT_NAME": "STARLINK-11586 [DTC]",
    "OBJECT_ID": "25032E",
    "EPOCH": "2025-11-11T01:02:24.075744",
    "MEAN_MOTION": 15.70915474,
    "ECCENTRICITY": 0.0002488,
    "INCLINATION": 43.0005,
    "RA_OF_ASC_NODE": 190.5165,
    "ARG_OF_PERICENTER": 270.8008,
    "MEAN_ANOMALY": 89.2575,
    "EPHEMERIS_TYPE": 0,
    "CLASSIFICATION_TYPE": "U",
    "NORAD_CAT_ID": 63009,
    "ELEMENT_SET_NO": 999,
    "REV_AT_EPOCH": 4355,
    "BSTAR": 0.0017097000000000002,
    "MEAN_MOTION_DOT": 0.00225707,
    "MEAN_MOTION_DDOT": 0.0,
    "TLE_LINE1": "1 63009U 25032E   25315.04333421  .00225707  00000+0  17097-2 0  9994",
    "TLE_LINE2": "2 63009  43.0005 190.5165 0002488 270.8008  89.2575 15.70915474 43552",
    "COMMENT": "Grouped by shell and plane from TLE"
  },
  {
    "OBJECT_NAME": "STARLINK-11574 [DTC]",
    "OBJECT_ID": "25032F",
    "EPOCH": "2025-11-11T01:17:41.077824",
    "MEAN_MOTION": 15.70891713,
    "ECCENTRICITY": 0.0002809,
    "INCLINATION": 43.0003,
    "RA_OF_ASC_NODE": 190.6009,
    "ARG_OF_PERICENTER": 255.9986,
    "MEAN_ANOMALY": 104.0569,
    "EPHEMERIS_TYPE": 0,
    "CLASSIFICATION_TYPE": "U",
    "NORAD_CAT_ID": 63010,
    "ELEMENT_SET_NO": 999,
    "REV_AT_EPOCH": 4355,
    "BSTAR": 0.0002856,
    "MEAN_MOTION_DOT": 0.00036442,
    "MEAN_MOTION_DDOT": 0.0,
    "TLE_LINE1": "1 63010U 25032F   25315.05394766  .00036442  00000+0  28560-3 0  9990",
    "TLE_LINE2": "2 63010  43.0003 190.6009 0002809 255.9986 104.0569 15.70891713 43554",
    "COMMENT": "Grouped by shell and plane from TLE"
  },
  {
    "OBJECT_NAME": "STARLINK-11580 [DTC]",
    "OBJECT_ID": "25032G",
    "EPOCH": "2025-11-11T00:39:28.971360",
    "MEAN_MOTION": 15.70884645,
    "ECCENTRICITY": 7.82e-05,
    "INCLINATION": 42.9943,
    "RA_OF_ASC_NODE": 190.3909,
    "ARG_OF_PERICENTER": 352.9553,
    "MEAN_ANOMALY": 7.1304,
    "EPHEMERIS_TYPE": 0,
    "CLASSIFICATION_TYPE": "U",
    "NORAD_CAT_ID": 63011,
    "ELEMENT_SET_NO": 999,
    "REV_AT_EPOCH": 4340,
    "BSTAR": 0.0025038,
    "MEAN_MOTION_DOT": 0.00334744,
    "MEAN_MOTION_DDOT": 0.0,
    "TLE_LINE1": "1 63011U 25032G   25315.02741865  .00334744  00000+0  25038-2 0  9996",
    "TLE_LINE2": "2 63011  42.9943 190.3909 0000782 352.9553   7.1304 15.70884645 43408",
    "COMMENT": "Grouped by shell and plane from TLE"
  },
  {
    "OBJECT_NAME": "STARLINK-11449 [DTC]",
    "OBJECT_ID": "25032H",
    "EPOCH": "2025-11-11T00:54:45.737568",
    "MEAN_MOTION": 15.70915539,
    "ECCENTRICITY": 0.000178,
    "INCLINATION": 42.9987,
    "RA_OF_ASC_NODE": 190.4729,
    "ARG_OF_PERICENTER": 294.6439,
    "MEAN_ANOMALY": 65.4243,
    "EPHEMERIS_TYPE": 0,
    "CLASSIFICATION_TYPE": "U",
    "NORAD_CAT_ID": 63012,
    "ELEMENT_SET_NO": 999,
    "REV_AT_EPOCH": 4355,
    "BSTAR": 0.002195,
    "MEAN_MOTION_DOT": 0.00292258,
    "MEAN_MOTION_DDOT": 0.0,
    "TLE_LINE1": "1 63012U 25032H   25315.03802937  .00292258  00000+0  21950-2 0  9998",
    "TLE_LINE2": "2 63012  42.9987 190.4729 0001780 294.6439  65.4243 15.70915539 43554",
    "COMMENT": "Grouped by shell and plane from TLE"
  },
  {
    "OBJECT_NAME": "STARLINK-11577 [DTC]",
    "OBJECT_ID": "25032J",
    "EPOCH": "2025-11-11T01:10:02.595360",
    "MEAN_MOTION": 15.70890453,
    "ECCENTRICITY": 0.0002864,
    "INCLINATION": 42.9996,
    "RA_OF_ASC_NODE": 190.5575,
    "ARG_OF_PERICENTER": 268.0275,
    "MEAN_ANOMALY": 92.0264,
    "EPHEMERIS_TYPE": 0,
    "CLASSIFICATION_TYPE": "U",
    "NORAD_CAT_ID": 63013,
    "ELEMENT_SET_NO": 999,
    "REV_AT_EPOCH": 4355,
    "BSTAR": 0.0013169,
    "MEAN_MOTION_DOT": 0.00172457,
    "MEAN_MOTION_DDOT": 0.0,
    "TLE_LINE1": "1 63013U 25032J   25315.04864115  .00172457  00000+0  13169-2 0  9997",
    "TLE_LINE2": "2 63013  42.9996 190.5575 0002864 268.0275  92.0264 15.70890453 43558",
    "COMMENT": "Grouped by shell and plane from TLE"
  },
  {
    "OBJECT_NAME": "STARLINK-11578 [DTC]",
    "OBJECT_ID": "25032K",
    "EPOCH": "2025-11-11T00:01:25.674240",
    "MEAN_MOTION": 15.70871064,
    "ECCENTRICITY": 0.0001972,
    "INCLINATION": 42.9994,
    "RA_OF_ASC_NODE": 191.0694,
    "ARG_OF_PERICENTER": 279.0547,
    "MEAN_ANOMALY": 81.0098,
    "EPHEMERIS_TYPE": 0,
    "CLASSIFICATION_TYPE": "U",
    "NORAD_CAT_ID": 63014,
    "ELEMENT_SET_NO": 999,
    "REV_AT_EPOCH": 4349,
    "BSTAR": 0.0024928,
    "MEAN_MOTION_DOT": 0.00332993,
    "MEAN_MOTION_DDOT": 0.0,
    "TLE_LINE1": "1 63014U 25032K   25315.00099160  .00332993  00000+0  24928-2 0  9992",
    "TLE_LINE2": "2 63014  42.9994 191.0694 0001972 279.0547  81.0098 15.70871064 43491",
    "COMMENT": "Grouped by shell and plane from TLE"
  },
  {
    "OBJECT_NAME": "STARLINK-11541 [DTC]",
    "OBJECT_ID": "25032L",
    "EPOCH": "2025-11-11T00:31:49.719072",
    "MEAN_MOTION": 15.70945246,
    "ECCENTRICITY": 0.0001884,
    "INCLINATION": 43.0,
    "RA_OF_ASC_NODE": 190.3432,
    "ARG_OF_PERICENTER": 305.2322,
    "MEAN_ANOMALY": 54.8369,
    "EPHEMERIS_TYPE": 0,
    "CLASSIFICATION_TYPE": "U",
    "NORAD_CAT_ID": 63015,
    "ELEMENT_SET_NO": 999,
    "REV_AT_EPOCH": 4356,
    "BSTAR": 0.0032718000000000005,
    "MEAN_MOTION_DOT": 0.0044458,
    "MEAN_MOTION_DDOT": 0.0,
    "TLE_LINE1": "1 63015U 25032L   25315.02210323  .00444580  00000+0  32718-2 0  9993",
    "TLE_LINE2": "2 63015  43.0000 190.3432 0001884 305.2322  54.8369 15.70945246 43560",
    "COMMENT": "Grouped by shell and plane from TLE"
  }
]